STARLINK-1151           
1 45081U 20006AP  26068.89141756  .00067074  00000+0  65978-3 0  9990
2 45081  53.0533 238.7978 0000905  30.6278 329.4789 15.65402001337158
HAISHAO-1               
1 62190U 24228A   26068.89414277  .00044178  00000+0  42909-3 0  9990
2 62190  42.9815 238.9951 0005269 331.3833  28.6742 15.65560642 72022
