[{"OBJECT_NAME":"STARLINK-1151","OBJECT_ID":"2020-006AP","EPOCH":"2026-03-09T21:23:38.478048","MEAN_MOTION":15.65402001,"ECCENTRICITY":9.046e-5,"INCLINATION":53.0533,"RA_OF_ASC_NODE":238.7978,"ARG_OF_PERICENTER":30.6278,"MEAN_ANOMALY":329.4789,"EPHEMERIS_TYPE":0,"CLASSIFICATION_TYPE":"U","NORAD_CAT_ID":45081,"ELEMENT_SET_NO":999,"REV_AT_EPOCH":33715,"BSTAR":0.00065977632,"MEAN_MOTION_DOT":0.00067074,"MEAN_MOTION_DDOT":0},{"OBJECT_NAME":"HAISHAO-1","OBJECT_ID":"2024-228A","EPOCH":"2026-03-09T21:27:33.935328","MEAN_MOTION":15.65560642,"ECCENTRICITY":0.00052692,"INCLINATION":42.9815,"RA_OF_ASC_NODE":238.9951,"ARG_OF_PERICENTER":331.3833,"MEAN_ANOMALY":28.6742,"EPHEMERIS_TYPE":0,"CLASSIFICATION_TYPE":"U","NORAD_CAT_ID":62190,"ELEMENT_SET_NO":999,"REV_AT_EPOCH":7202,"BSTAR":0.00042908913,"MEAN_MOTION_DOT":0.00044178,"MEAN_MOTION_DDOT":0}]
